STARLINK-5823           
1 55786U 23028AX  26068.75256178 -.00000080  00000+0  11127-5 0  9994
2 55786  70.0009 204.3750 0002457 270.7505  89.3373 14.98328941167033
LEMUR-2-THEFALCONER     
1 63264U 25052BG  26068.95148778  .00006306  00000+0  55972-3 0  9991
2 63264  97.6968 322.9473 0002114  10.9074 349.2193 14.96514677 53848
